BEIDOU 3 (C01)          
1 36287U 10001A   22101.51368786 -.00000280  00000+0  00000+0 0  9997
2 36287   1.9663  49.4159 0003420  12.9386 102.6991  1.00272945 44841
BEIDOU 5 (C06)          
1 36828U 10036A   22101.65204882 -.00000134  00000+0  00000+0 0  9995
2 36828  54.1896 176.8409 0027755 186.2889 179.7248  1.00265437 42917
BEIDOU 6 (C04)          
1 37210U 10057A   22101.65383758 -.00000113  00000+0  00000+0 0  9991
2 37210   0.7484  39.4996 0002120 197.6128 358.0850  1.00271645 41962
BEIDOU 7 (C07)          
1 37256U 10068A   22101.33377227 -.00000167  00000+0  00000+0 0  9991
2 37256  50.3321 290.4450 0018638 182.0469 315.8034  1.00270778 41471
BEIDOU 8 (C08)          
1 37384U 11013A   22101.35735958 -.00000165  00000+0  00000+0 0  9993
2 37384  60.2000  54.9203 0018378 194.4628 187.5957  1.00273468 40354
BEIDOU 9 (C09)          
1 37763U 11038A   22101.04194146 -.00000082  00000+0  00000+0 0  9993
2 37763  54.4721 179.3297 0095509 227.0833 260.3677  1.00292634 39327
BEIDOU 10 (C10)         
1 37948U 11073A   22101.49146396 -.00000119  00000+0  00000+0 0  9991
2 37948  50.4460 290.0774 0077592 217.1797 324.9040  1.00267970 38088
BEIDOU 11 (C05)         
1 38091U 12008A   22101.65696300  .00000058  00000+0  00000+0 0  9994
2 38091   1.4161  65.4048 0014833 322.2061 107.4062  1.00272563 37161
BEIDOU 12 (C11)         
1 38250U 12018A   22101.32419933 -.00000087  00000+0  00000+0 0  9994
2 38250  56.7113 355.7767 0021633 257.8053 305.5844  1.86234334 67835
BEIDOU 13 (C12)         
1 38251U 12018B   22101.21942890 -.00000087  00000+0  00000+0 0  9996
2 38251  56.6298 355.1107 0012607 264.8390 272.5533  1.86234169 67838
BEIDOU 15 (C14)         
1 38775U 12050B   22101.31194884  .00000070  00000+0  00000+0 0  9997
2 38775  55.3605 113.9435 0015173 318.5190 117.4455  1.86231297 65216
BEIDOU 16 (C02)         
1 38953U 12059A   22101.49702091 -.00000174  00000+0  00000+0 0  9994
2 38953   1.8224  84.4800 0013288 293.1537  84.9796  1.00269199 34730
BEIDOU 17 (C31)         
1 40549U 15019A   22101.39542784 -.00000128  00000+0  00000+0 0  9996
2 40549  51.9984 313.5326 0035734 188.2289 293.4511  1.00256728 25769
BEIDOU 18 (C57)         
1 40748U 15037A   22101.35519064 -.00000086  00000+0  00000+0 0  9991
2 40748  55.8838 354.0117 0005664  13.5532 164.3824  1.86233255 45667
BEIDOU 19 (C58)         
1 40749U 15037B   22101.17058303 -.00000087  00000+0  00000+0 0  9997
2 40749  55.8868 354.0081 0006311 339.1278 209.8383  1.86232125 45654
BEIDOU 20 (C18)         
1 40938U 15053A   22101.35310149 -.00000100  00000+0  00000+0 0  9990
2 40938  51.6062 276.6393 0044817 192.4452 312.4797  1.00261868 24037
BEIDOU IGSO-6 (C13)     
1 41434U 16021A   22101.03876854 -.00000126  00000+0  00000+0 0  9991
2 41434  58.0062  53.5343 0044661 220.5740  31.6555  1.00296047 22157
BEIDOU-2 G7 (C03)       
1 41586U 16037A   22101.50669281 -.00000353  00000+0  00000+0 0  9994
2 41586   1.8287  68.7489 0009433 359.7694  63.9763  1.00264981 21475
BEIDOU-3 M1 (C19)       
1 43001U 17069A   22101.56267073  .00000073  00000+0  00000+0 0  9991
2 43001  55.5145 113.9266 0012374 289.9686 110.3039  1.86231878 30158
BEIDOU-3 M2 (C20)       
1 43002U 17069B   22101.39173108  .00000071  00000+0  00000+0 0  9996
2 43002  55.5140 113.9684 0010279 306.4376  22.3421  1.86231363 30135
BEIDOU-3 M3 (C27)       
1 43107U 18003A   22101.31736542 -.00000088  00000+0  00000+0 0  9999
2 43107  55.3331 354.9606 0005588  43.6911  41.2750  1.86232393 28905
BEIDOU-3 M4 (C28)       
1 43108U 18003B   22101.38575462 -.00000088  00000+0  00000+0 0  9999
2 43108  55.3265 354.9470 0002671 278.0676 257.0183  1.86230848 28903
BEIDOU-3 M5 (C21)       
1 43207U 18018A   22101.03339912  .00000067  00000+0  00000+0 0  9991
2 43207  55.4736 114.0607 0007239 321.5379  38.4604  1.86231608 28288
BEIDOU-3 M6 (C22)       
1 43208U 18018B   22101.10002676  .00000068  00000+0  00000+0 0  9995
2 43208  55.4725 114.0628 0010225 298.4126  61.5366  1.86231893 28289
BEIDOU-3 M7 (C29)       
1 43245U 18029A   22101.56763022 -.00000084  00000+0  00000+0 0  9996
2 43245  55.2495 352.7253 0001441   8.5002 154.6331  1.86232504 27443
BEIDOU-3 M8 (C30)       
1 43246U 18029B   22101.52186638 -.00000085  00000+0  10000-3 0  9991
2 43246  55.2474 352.7566 0005287   0.5959 178.3319  1.86232705 27434
BEIDOU IGSO-7 (C16)     
1 43539U 18057A   22101.65713245 -.00000137  00000+0  00000+0 0  9994
2 43539  55.0722 176.2963 0047293 225.4095 146.2368  1.00278376 13843
BEIDOU-3 M9 (C23)       
1 43581U 18062A   22101.29012757 -.00000009  00000+0  00000+0 0  9995
2 43581  54.2975 234.3824 0001990 293.7101 300.6787  1.86231786 25171
BEIDOU-3 M10 (C24)      
1 43582U 18062B   22101.37506242 -.00000009  00000+0  00000+0 0  9992
2 43582  54.2981 234.3689 0005574  22.6048   0.4582  1.86232061 25185
BEIDOU-3 M11 (C25)      
1 43602U 18067A   22101.38548159 -.00000010  00000+0  00000+0 0  9996
2 43602  54.3783 232.9775 0007209  14.9792  56.5899  1.86231650 24675
BEIDOU-3 M12 (C26)      
1 43603U 18067B   22101.51893983 -.00000010  00000+0  00000+0 0  9990
2 43603  54.3760 232.9397 0004322   8.6394  62.7941  1.86231559 24699
BEIDOU-3 M13 (C32)      
1 43622U 18072A   22101.37028366  .00000070  00000+0  00000+0 0  9991
2 43622  55.4395 113.6067 0008838 285.0503  76.1910  1.86231557 24204
BEIDOU-3 M14 (C33)      
1 43623U 18072B   22101.42087693  .00000071  00000+0  00000+0 0  9997
2 43623  55.4416 113.5973 0006628 302.8263 182.5694  1.86231547 24200
BEIDOU-3 M15 (C34)      
1 43647U 18078A   22101.00586920 -.00000088  00000+0  10000-3 0  9994
2 43647  55.1446 352.9087 0007634   5.4619  97.1661  1.86233096 23700
BEIDOU-3 M16 (C35)      
1 43648U 18078B   22101.29822769 -.00000086  00000+0  00000+0 0  9993
2 43648  55.1409 352.9052 0005689  12.2214 194.3336  1.86232159 23727
BEIDOU-3 G1 (C59)       
1 43683U 18085A   22101.58438654 -.00000278  00000+0  00000+0 0  9991
2 43683   0.8445 177.9228 0002232 330.5584  41.6666  1.00276236 12740
BEIDOU-3 M17 (C36)      
1 43706U 18093A   22100.60492664 -.00000006  00000+0  00000+0 0  9998
2 43706  54.3799 234.2870 0008050 275.5592  84.3187  1.86231979 23072
BEIDOU-3 M18 (C37)      
1 43707U 18093B   22101.20341066 -.00000008  00000+0  00000+0 0  9997
2 43707  54.3801 234.2564 0006675 311.6985 180.5886  1.86232081 23076
BEIDOU-3 IGSO-1 (C38)   
1 44204U 19023A   22101.35420334 -.00000196  00000+0  00000+0 0  9994
2 44204  56.4642  53.6899 0019881 205.2554 187.4338  1.00278215 11049
BEIDOU-2 G8             
1 44231U 19027A   22101.63525823 -.00000247  00000+0  00000+0 0  9995
2 44231   0.7043  72.6602 0004225 139.6493   0.7563  1.00274381 10751
BEIDOU-3 IGSO-2 (C39)   
1 44337U 19035A   22101.37701698 -.00000137  00000+0  00000+0 0  9996
2 44337  55.1119 172.3233 0023002 194.0953  88.0829  1.00273483 10378
BEIDOU-3 M23 (C45)      
1 44542U 19061A   22101.70636968 -.00000009  00000+0  10000-3 0  9990
2 44542  54.6042 234.3782 0007474 345.9881  75.6147  1.86231503 17345
BEIDOU-3 M24 (C46)      
1 44543U 19061B   22100.72471125 -.00000006  00000+0  00000+0 0  9996
2 44543  54.6057 234.3796 0004805 345.3641  49.2931  1.86231579 17329
BEIDOU-3 IGSO-3         
1 44709U 19073A   22101.43683109 -.00000139  00000+0  00000+0 0  9996
2 44709  57.3735 297.0727 0021309 172.0860   7.2971  1.00276632  9135
BEIDOU-3 M21            
1 44793U 19078A   22101.24094373 -.00000087  00000+0  10000-3 0  9999
2 44793  54.9932 352.9316 0007577   8.9938 205.2349  1.86232108 16196
BEIDOU-3 M22            
1 44794U 19078B   22100.80103590 -.00000089  00000+0  00000+0 0  9990
2 44794  54.9677 352.9380 0005525   4.8130 186.0208  1.86232677 16184
BEIDOU-3 M19            
1 44864U 19090A   22101.41850965  .00000071  00000+0  00000+0 0  9995
2 44864  55.3744 113.8197 0018851 270.7012 168.6181  1.86231816 15786
BEIDOU-3 M20            
1 44865U 19090B   22101.43485491  .00000071  00000+0  00000+0 0  9996
2 44865  55.3765 113.8508 0017223 283.6327 256.5243  1.86231779 15751
BEIDOU-3 G2             
1 45344U 20017A   22101.50067476 -.00000143  00000+0  00000+0 0  9998
2 45344   2.1158 348.7518 0003337  80.5455  30.6688  1.00271826  7957
BEIDOU-3 G3             
1 45807U 20040A   22101.57845571 -.00000356  00000+0  00000+0 0  9991
2 45807   1.5961 301.7061 0007186 346.3957 230.3172  1.00265256  6758
